RADUGA 1 [-]            
1 08513U 75123A   17038.01853497 -.00000114  00000-0  00000-0 0  9998
2 08513  10.7212 313.7508 0005949 189.2101  77.1263  1.00297150160679
RADUGA 2 [-]            
1 09416U 76092A   17038.59348264 -.00000198  00000-0  00000-0 0  9993
2 09416  11.3293 315.6120 0029768 296.9512 184.7061  1.00261964 95083
RADUGA 3 [-]            
1 10159U 77071A   17040.26375924  .00000000  00000-0  10000-3 0  9992
2 10159  11.8715 317.8600 0008734 208.0065 152.0157  1.00350931142818
RADUGA 4 [-]            
1 10987U 78073A   17038.77763733 -.00000290  00000-0  00000-0 0  9994
2 10987  12.3891 320.7321 0012854 294.4584 259.3992  1.00210244 85348
RADUGA 5 [-]            
1 11343U 79035A   17037.88943140 -.00000050  00000-0  00000-0 0  9997
2 11343  12.7578 322.9918 0000191 209.3413 354.0514  1.00252342 95084
RADUGA 6 [-]            
1 11708U 80016A   17037.71656556 -.00000101  00000-0  00000-0 0  9994
2 11708  13.0041 325.4476 0004121 246.9089 258.2210  1.00200370 87890
RADUGA 7 [-]            
1 12003U 80081A   17039.59127273  .00000062  00000-0  00000+0 0  9996
2 12003  13.1099 327.0449 0012612 239.1151 332.6381  1.00297498 89164
RADUGA 8 [-]            
1 12351U 81027A   17039.97870083  .00000087  00000-0  00000+0 0  9996
2 12351  13.4049 327.8359 0084694 173.5247   7.4630  1.00372482 88252
RADUGA 9 [-]            
1 12618U 81069A   17038.93391012  .00000089  00000-0  00000-0 0  9996
2 12618  13.5079 330.0120 0002029 307.3075 246.6113  1.00210164 13082
RADUGA 10 [-]           
1 12897U 81102A   17037.88386622 -.00000139  00000-0  00000-0 0  9994
2 12897  13.5542 330.7603 0002953 185.0679  17.7741  1.00249462 83079
RADUGA 11 [-]           
1 13669U 82113A   17038.82744234 -.00000061  00000-0  00000-0 0  9991
2 13669  14.9750 341.6699 0041738 205.4911 334.2649  0.97707209 88150
RADUGA 12 [-]           
1 13974U 83028A   17037.73976506 -.00000194  00000-0  00000-0 0  9991
2 13974  14.1967 339.0855 0003665 292.9528 214.1647  1.00287559135117
RADUGA 13 [-]           
1 14307U 83088A   17037.98734157 -.00000098  00000-0  00000-0 0  9992
2 14307  15.0996 343.3931 0017319 336.2592 207.9264  0.98173721 85397
RADUGA 14 [-]           
1 14725U 84016A   17037.99959600 -.00000070  00000-0  00000+0 0  9990
2 14725  14.1877 342.1456 0001169 275.7205 309.6886  1.00248076 83817
RADUGA 15 [-]           
1 15057U 84063A   17038.74292528 -.00000363  00000-0  00000-0 0  9990
2 15057  14.2448 343.1022 0001421 199.0594 353.0610  1.00277115106844
RADUGA 16 [-]           
1 15946U 85070A   17038.16070501 -.00000256  00000-0  00000+0 0  9997
2 15946  14.4060 347.2741 0004225 252.8172 283.8411  1.00257020 87953
RADUGA 17 [-]           
1 16250U 85107A   17037.69463365  .00000111  00000-0  00000-0 0  9998
2 16250  14.4418 348.4554 0010145 156.0278 276.3865  1.00147988117443
RADUGA 18 [-]           
1 16497U 86007A   17038.06205153  .00000024  00000-0  00000+0 0  9994
2 16497  15.1022 350.7100 0069857 113.8147 120.4499  0.98810115112147
RADUGA 19 [-]           
1 17046U 86082A   17039.91335645 -.00000015  00000-0  00000+0 0  9994
2 17046  15.2523 354.1508 0006878 111.2345  61.7842  0.98458700109324
RADUGA 20 [-]           
1 17611U 87028A   17038.23906781 -.00000142  00000-0  00000+0 0  9993
2 17611  17.0357 357.6858 0022252  87.8898  85.6635  0.95962479105509
RADUGA 21 [-]           
1 18631U 87100A   17040.39020726 -.00000078  00000-0  00000+0 0  9991
2 18631  15.1946 356.0385 0002896 245.4621 283.5118  1.00360625106835
RADUGA 22 [-]           
1 19596U 88095A   17037.04284163  .00000104  00000-0  00000-0 0  9991
2 19596  14.8591 359.6783 0001748 146.5402  33.8548  1.00208196 87376
RADUGA 23 [-]           
1 19928U 89030A   17037.06596115  .00000111  00000-0  00000-0 0  9993
2 19928  14.8621   1.3431 0016623 119.0308  71.4527  1.00243098100571
RADUGA-1 1 [-]          
1 20083U 89048A   17038.09666192 -.00000214  00000-0  00000-0 0  9998
2 20083  15.4038   3.8981 0015389  60.2170  60.7901  0.98709028 97548
RADUGA 24 [-]           
1 20367U 89098A   17037.88064640 -.00000277  00000-0  00000+0 0  9992
2 20367  15.2402   3.9155 0004672 237.0958 304.0585  1.00329142 98767
RADUGA 25 [-]           
1 20499U 90016A   17038.48311383 -.00000024  00000-0  00000+0 0  9996
2 20499  14.9666   4.3079 0003548 245.1376 298.1875  1.00374494 98682
RADUGA 26 [-]           
1 21016U 90112A   17038.88261293 -.00000279  00000-0  00000-0 0  9990
2 21016  15.0033   7.4163 0003060 331.2233 210.1200  1.00244007 96000
RADUGA-1 2 [-]          
1 21038U 90116A   17039.89346503 -.00000337  00000-0  00000+0 0  9992
2 21038  15.0355   7.5212 0002643  12.2399 181.1753  1.00286582 95667
RADUGA 27 [-]           
1 21132U 91014A   17040.04597866  .00000089  00000-0  00000+0 0  9997
2 21132  15.5560   7.7533 0002993 275.3601 255.3239  1.00307382 95057
RADUGA 28 [-]           
1 21821U 91087A   17038.71879719 -.00000389  00000-0  00000-0 0  9998
2 21821  15.0296  10.8348 0000839  83.9759  56.5761  1.00305654 92065
RADUGA 29 [-]           
1 22557U 93013A   17039.82131319 -.00000377  00000-0  00000+0 0  9992
2 22557  14.8698  14.9308 0000953 296.4084 249.7631  1.00320334 87445
RADUGA 30 [-]           
1 22836U 93062A   17039.96999505 -.00000075  00000-0  00000+0 0  9995
2 22836  14.7461  16.7204 0006928 243.7034 297.4481  1.00277258 85521
RADUGA-1 3 [-]          
1 22981U 94008A   17038.59675370  .00000069  00000-0  00000+0 0  9998
2 22981  14.7204  17.9406 0003197 245.6813 138.9602  1.00289103 84250
RADUGA 31 [-]           
1 23010U 94012A   17039.95881625 -.00000188  00000-0  00000+0 0  9993
2 23010  14.6886  17.8837 0001684 274.9209 274.7774  1.00207830 84097
RADUGA 32 [-]           
1 23448U 94087A   17039.96279076 -.00000080  00000-0  00000+0 0  9993
2 23448  14.4425  20.4205 0009330 205.7742 329.7311  1.00275039 98693
RADUGA-1 4 [-]          
1 25642U 99010A   17038.57598833 -.00000079  00000-0  00000+0 0  9991
2 25642  13.9699  32.7292 0006513 211.7315 172.9708  1.00189623 65711
RADUGA-1 5 [-]          
1 26477U 00049A   17038.96645576 -.00000357  00000-0  00000+0 0  9991
2 26477  11.6313  34.8038 0002877 259.3718 296.4334  1.00254286 60238
RADUGA-1 6 [-]          
1 26936U 01045A   17039.55551076 -.00000064  00000-0  00000+0 0  9990
2 26936  11.2726  40.0906 0015579 134.3458  64.4896  0.97743404 55185
RADUGA-1 7 [-]          
1 28194U 04010A   17039.50306333 -.00000385  00000-0  00000+0 0  9998
2 28194   9.5198  47.3902 0004651 193.7145 193.1524  1.00205375 47154
RADUGA-1M 1 [-]         
1 32373U 07058A   17038.41315576  .00000073  00000-0  00000+0 0  9998
2 32373   2.8244  74.0945 0004379 221.0788 223.1055  0.99394907 34353
RADUGA-1 8 [-]          
1 34264U 09010A   17038.78928855  .00000031  00000-0  00000-0 0  9994
2 34264   5.4911  69.5499 0010172 291.5813  80.9953  0.99826599 29072
RADUGA-1M 2 [+]         
1 36358U 10002A   17040.03507898 -.00000207  00000-0  00000+0 0  9999
2 36358   0.0414 253.9470 0003509  84.3759 258.5733  1.00269782 25767
RADUGA-1M 3 [+]         
1 39375U 13062A   17039.82039141 -.00000062  00000-0  00000+0 0  9995
2 39375   0.0231 185.4053 0002403 141.1128 177.9026  1.00272160 11887
